SAUDISAT 1C             
1 27607U 02058C   22226.17692416  .00000380  00000+0  72531-4 0  9999
2 27607  64.5547 125.2504 0080709 283.3625  75.8489 14.76199396 56891
SAUDISAT 2              
1 28371U 04025F   22226.48274756 -.00000091  00000+0 -10231-4 0  9991
2 28371  98.3839 183.3535 0024567 287.7177  72.1302 14.54582524961724
SAUDISAT 3              
1 31118U 07012B   22226.39457173  .00000144  00000+0  32465-4 0  9999
2 31118  97.9716 172.0486 0015503  16.5858 343.5852 14.69351044821615
PISAT                   
1 41784U 16059B   22226.37438970  .00000375  00000+0  80042-4 0  9992
2 41784  97.9120 267.4599 0031359 349.0703  10.9815 14.63967407314169
FLYING LAPTOP           
1 42831U 17042G   22226.41399043  .00001304  00000+0  13403-3 0  9990
2 42831  97.4181  77.4873 0014191 167.1246 193.0344 14.91873569276731
SALSAT                  
1 46495U 20068K   22226.42058268  .00001266  00000+0  94098-4 0  9991
2 46495  97.7313 167.7535 0018343  82.0066 278.3240 15.04709548102906
